COSMOS 2433 (720)       
1 32275U 07052A   24189.39702946 -.00000082  00000+0  00000+0 0  9996
2 32275  65.9285 339.7134 0002210 199.8746 160.1083  2.13104188129936
COSMOS 2432 (719)       
1 32276U 07052B   24188.99955407 -.00000083  00000+0  00000+0 0  9995
2 32276  65.9435 339.8409 0008010 332.3639  28.8762  2.13103286129953
COSMOS 2434 (721)       
1 32393U 07065A   24188.90810392  .00000059  00000+0  00000+0 0  9995
2 32393  64.3204 215.9061 0000193 277.5958 319.6247  2.13103213128662
COSMOS 2436 (723)       
1 32395U 07065C   24189.40695646  .00000054  00000+0  00000+0 0  9991
2 32395  64.3290 215.9540 0015991 352.1652  42.9339  2.13102930128601
COSMOS 2456 (730)       
1 36111U 09070A   24189.50143097 -.00000021  00000+0  00000+0 0  9993
2 36111  64.6205  95.2598 0004100 323.8143 162.9868  2.13099208113306
COSMOS 2457 (733)       
1 36112U 09070B   24190.17635539 -.00000017  00000+0  00000+0 0  9991
2 36112  64.6052  95.0947 0003554 151.3756 266.4099  2.13101397113364
COSMOS 2460 (732)       
1 36402U 10007C   24187.01845394 -.00000086  00000+0  00000+0 0  9992
2 36402  65.7854 338.4553 0001848 105.8371  41.4463  2.13106294111552
COSMOS 2476 (744)       
1 37867U 11064A   24188.28182510 -.00000029  00000+0  00000+0 0  9993
2 37867  64.8931  96.9438 0022284 237.8689 305.2819  2.13101700 98611
COSMOS 2477 (745)       
1 37868U 11064B   24189.38410315 -.00000020  00000+0  00000+0 0  9994
2 37868  64.9008  96.9791 0019482 238.9899 247.9747  2.13103233 98638
COSMOS 2475 (743)       
1 37869U 11064C   24189.45244926 -.00000019  00000+0  00000+0 0  9994
2 37869  64.9076  96.9919 0024451 254.1921 243.5213  2.13102068 98640
COSMOS 2485 (747)       
1 39155U 13019A   24187.04644993 -.00000040  00000+0  00000+0 0  9991
2 39155  65.0501  97.5738 0022619 233.8791 125.9291  2.13101906 87102
COSMOS 2492 (754)       
1 39620U 14012A   24187.94030093 -.00000086  00000+0  00000+0 0  9991
2 39620  65.6666 337.9989 0010886 325.4712  34.4474  2.13103201 80087
COSMOS 2500 (755)       
1 40001U 14032A   24189.99644793 -.00000080  00000+0  00000+0 0  9997
2 40001  65.6030 337.7334 0006926 187.2477 172.7348  2.13105945 78340
COSMOS 2501 (702K)      
1 40315U 14075A   24188.84212663  .00000059  00000+0  00000+0 0  9997
2 40315  63.6220 214.9927 0021013 211.4060 148.5323  2.13101503 74710
COSMOS 2514 (751)       
1 41330U 16008A   24187.88601910 -.00000086  00000+0  00000+0 0  9994
2 41330  65.3985 337.3092 0010415 200.5478 159.3999  2.13102677 65468
COSMOS 2522 (752)       
1 42939U 17055A   24189.13416683  .00000056  00000+0  00000+0 0  9990
2 42939  64.0830 216.0847 0010336 241.2131 118.7478  2.13101971 52845
COSMOS 2527 (756)       
1 43508U 18053A   24189.09329895 -.00000021  00000+0  00000+0 0  9998
2 43508  65.2111  97.6609 0007648 235.1770 124.7806  2.13102388 47147
COSMOS 2529 (757)       
1 43687U 18086A   24189.19221504  .00000056  00000+0  00000+0 0  9998
2 43687  64.2984 216.6008 0011730 259.1893 100.7441  2.13102118 44155
COSMOS 2534 (758)       
1 44299U 19030A   24188.68023956  .00000061  00000+0  00000+0 0  9998
2 44299  64.3714 216.5733 0013542 278.3097 183.0915  2.13102294 39781
COSMOS 2544 (759)       
1 44850U 19088A   24189.03734602 -.00000022  00000+0  00000+0 0  9999
2 44850  65.1976  97.4995 0012898 258.8401 101.0445  2.13102162 35580
COSMOS 2545 (760)       
1 45358U 20018A   24187.35719257 -.00000088  00000+0  00000+0 0  9992
2 45358  64.7386 337.3232 0008148 235.1092 124.8039  2.13102581 33496
COSMOS 2547 (705K)      
1 46805U 20075A   24189.42143007  .00000054  00000+0  00000+0 0  9999
2 46805  64.6004 216.1958 0008955 241.6300 118.3435  2.13103103 28784
COSMOS 2557 (706K)      
1 52984U 22075A   24188.64800024 -.00000086  00000+0  00000+0 0  9994
2 52984  64.6648 339.4066 0010747 278.3908  81.4784  2.13102225 15579
COSMOS 2559 (707K)      
1 54031U 22130A   24189.06021230 -.00000085  00000+0  00000+0 0  9991
2 54031  64.6365 339.5092 0006116 212.3011 147.6531  2.13101553 13552
COSMOS 2564 (761)       
1 54377U 22161A   24189.25120164  .00000056  00000+0  00000+0 0  9992
2 54377  64.7416 216.3098 0011549 225.2489 134.7220  2.13102181 12503
COSMOS 2569 (703K)      
1 57517U 23114A   24189.26832453 -.00000021  00000+0  00000+0 0  9995
2 57517  64.9247  96.6339 0010820 298.0419  61.8809  2.13103787  7134
